[{"OBJECT_NAME":"LEMUR-2-ANDIS","OBJECT_ID":"2017-042P","EPOCH":"2026-03-09T13:25:33.116448","MEAN_MOTION":15.30557934,"ECCENTRICITY":0.0009101,"INCLINATION":97.3659,"RA_OF_ASC_NODE":249.795,"ARG_OF_PERICENTER":4.3248,"MEAN_ANOMALY":355.807,"EPHEMERIS_TYPE":0,"CLASSIFICATION_TYPE":"U","NORAD_CAT_ID":42838,"ELEMENT_SET_NO":999,"REV_AT_EPOCH":47319,"BSTAR":0.00079875,"MEAN_MOTION_DOT":0.00023598,"MEAN_MOTION_DDOT":0},{"OBJECT_NAME":"STARLINK-35116","OBJECT_ID":"2025-235W","EPOCH":"2026-03-09T21:22:06.443040","MEAN_MOTION":15.30205087,"ECCENTRICITY":6.066e-5,"INCLINATION":53.1593,"RA_OF_ASC_NODE":244.2307,"ARG_OF_PERICENTER":46.7534,"MEAN_ANOMALY":313.3517,"EPHEMERIS_TYPE":0,"CLASSIFICATION_TYPE":"U","NORAD_CAT_ID":66078,"ELEMENT_SET_NO":999,"REV_AT_EPOCH":2295,"BSTAR":0.0012607089,"MEAN_MOTION_DOT":0.00037172,"MEAN_MOTION_DDOT":0}]
